STARLINK-36532          
1 67628U 26020M   26164.72943191  .00030057  00000+0  10968-2 0  9994
2 67628  43.0030 317.2157 0000264 219.7894 140.2938 15.27596590 20805
STARLINK-36367          
1 67629U 26020N   26164.72300796  .00021470  00000+0  78726-3 0  9999
2 67629  43.0056 317.1712 0000428 278.0984  81.9819 15.27588370 20806
STARLINK-36416          
1 67630U 26020P   26164.15378851  .00018482  00000+0  67910-3 0  9997
2 67630  43.0067 320.6496 0005216 268.1565  91.8690 15.27588131 20715
STARLINK-36527          
1 67631U 26020Q   26164.70902448  .00019743  00000+0  72432-3 0  9990
2 67631  43.0131 317.9448 0002761 105.1637 254.9521 15.27612198 20790
STARLINK-36633          
1 67632U 26020R   26164.69488582  .00021264  00000+0  77970-3 0  9990
2 67632  43.0053 317.8274 0001449 273.4020  86.6666 15.27592568 20795
STARLINK-36637          
1 67633U 26020S   26164.15251622  .00021615  00000+0  79227-3 0  9992
2 67633  43.0033 320.6375 0001035 274.2278  85.8456 15.27597763 20715
STARLINK-36617          
1 67634U 26020T   26164.71159420  .00029750  00000+0  10858-2 0  9990
2 67634  43.0034 317.9562 0000403 114.9310 245.1583 15.27594194 20794
STARLINK-36627          
1 67635U 26020U   26164.73328714  .00019854  00000+0  72894-3 0  9990
2 67635  43.0061 317.2545 0000103 325.6402  34.4443 15.27585654 20806
STARLINK-36624          
1 67636U 26020V   26164.71529421  .00019122  00000+0  70234-3 0  9991
2 67636  42.9996 317.1034 0003568 113.7252 246.3975 15.27589344 20805
STARLINK-36610          
1 67637U 26020W   26164.14865781  .00025560  00000+0  93313-3 0  9997
2 67637  43.0046 320.6037 0002349 269.9086  90.1496 15.27650064 20712
STARLINK-36599          
1 67638U 26020X   26164.70773421  .00017431  00000+0  64119-3 0  9999
2 67638  43.0020 317.9160 0002577 269.4901  90.5655 15.27593180 20799
STARLINK-36595          
1 67639U 26020Y   26164.15636804  .00018590  00000+0  68292-3 0  9995
2 67639  43.0048 320.6557 0001648 268.7945  91.2718 15.27601280 20710
STARLINK-36570          
1 67640U 26020Z   26164.72686080  .00023955  00000+0  87689-3 0  9993
2 67640  42.9969 317.2011 0000506 180.3323 179.7529 15.27591234 20809
STARLINK-36514          
1 67641U 26020AA  26164.70516441  .00018750  00000+0  68927-3 0  9996
2 67641  43.0006 317.8928 0001322 254.8780 105.1925 15.27574208 20791
STARLINK-36556          
1 67642U 26020AB  26164.70131079  .00018936  00000+0  69572-3 0  9990
2 67642  43.0045 317.8733 0000848 121.3287 238.7648 15.27586996 20793
STARLINK-36533          
1 67643U 26020AC  26164.73071971  .00025744  00000+0  94154-3 0  9997
2 67643  43.0109 317.2353 0000747  42.3111 317.7798 15.27588851 20801
STARLINK-36623          
1 67644U 26020AD  26164.72043613  .00030806  00000+0  11236-2 0  9993
2 67644  43.0036 317.1522 0000179 107.0432 253.0439 15.27600471 20809
STARLINK-36619          
1 67645U 26020AE  26164.71915435  .00027972  00000+0  10222-2 0  9997
2 67645  43.0038 317.1407 0001127 281.0289  79.0435 15.27578118 20805
STARLINK-36719          
1 67648U 26022A   26164.64757045  .00017710  00000+0  54964-3 0  9996
2 67648  97.2832 197.5493 0001411 101.7673 258.3728 15.33442321 20278
STARLINK-36342          
1 67649U 26022B   26164.64631296  .00015262  00000+0  47364-3 0  9992
2 67649  97.2838 198.6203 0000923 124.5257 235.6073 15.33475845 20340
STARLINK-36703          
1 67650U 26022C   26164.81070954  .00012622  00000+0  39271-3 0  9996
2 67650  97.2833 197.7885 0001305 109.5032 250.6352 15.33439556 20304
STARLINK-36696          
1 67651U 26022D   26164.82702509  .00060919  00000+0  18696-2 0  9995
2 67651  97.2839 197.7676 0000755  97.9651 262.1678 15.33522768 20301
STARLINK-36699          
1 67652U 26022E   26164.66388457  .00011752  00000+0  36594-3 0  9999
2 67652  97.2836 197.6845 0001166 108.3567 251.7802 15.33430596 20283
STARLINK-36694          
1 67653U 26022F   26164.83517315  .00032652  00000+0  10088-2 0  9997
2 67653  97.2857 197.7555 0001140 101.4487 258.6884 15.33464014 20304
STARLINK-36620          
1 67654U 26022G   26164.81885847  .00025130  00000+0  77750-3 0  9997
2 67654  97.2839 197.7776 0001600  88.1857 271.9569 15.33470495 20301
STARLINK-36720          
1 67655U 26022H   26164.67204123  .00012888  00000+0  40091-3 0  9998
2 67655  97.2844 197.6688 0001113 120.2162 239.9191 15.33440945 20284
STARLINK-36688          
1 67656U 26022J   26164.65571803  .00013899  00000+0  43186-3 0  9990
2 67656  97.2836 197.6944 0001100 105.5548 254.5816 15.33459249 20285
STARLINK-36706          
1 67657U 26022K   26164.82974044  .00017475  00000+0  54255-3 0  9997
2 67657  97.2833 197.7643 0001343  95.4308 264.7088 15.33433982 20303
STARLINK-36701          
1 67658U 26022L   26164.62580990  .00019425  00000+0  60293-3 0  9995
2 67658  97.2835 197.5828 0001281  97.6545 262.4843 15.33420079 20270
STARLINK-36642          
1 67659U 26022M   26164.81342782  .00017073  00000+0  53017-3 0  9995
2 67659  97.2841 197.7863 0001094  95.5524 264.5843 15.33432557 20306
