OBJECT_NAME,OBJECT_ID,EPOCH,MEAN_MOTION,ECCENTRICITY,INCLINATION,RA_OF_ASC_NODE,ARG_OF_PERICENTER,MEAN_ANOMALY,EPHEMERIS_TYPE,CLASSIFICATION_TYPE,NORAD_CAT_ID,ELEMENT_SET_NO,REV_AT_EPOCH,BSTAR,MEAN_MOTION_DOT,MEAN_MOTION_DDOT
STARLINK-36532,2026-020M,2026-06-13T17:30:22.917024,15.27596590,.0000264,43.0030,317.2157,219.7894,140.2938,0,U,67628,999,2080,.10968E-2,.30057E-3,0
STARLINK-36367,2026-020N,2026-06-13T17:21:07.887744,15.27588370,.0000428,43.0056,317.1712,278.0984,81.9819,0,U,67629,999,2080,.78726E-3,.2147E-3,0
STARLINK-36416,2026-020P,2026-06-13T03:41:27.327264,15.27588131,.00052166,43.0067,320.6496,268.1565,91.8690,0,U,67630,999,2071,.6791031E-3,.18482E-3,0
STARLINK-36527,2026-020Q,2026-06-13T17:00:59.715072,15.27612198,.0002761,43.0131,317.9448,105.1637,254.9521,0,U,67631,999,2079,.72432E-3,.19743E-3,0
STARLINK-36633,2026-020R,2026-06-13T16:40:38.134848,15.27592568,.0001449,43.0053,317.8274,273.4020,86.6666,0,U,67632,999,2079,.7797E-3,.21264E-3,0
STARLINK-36637,2026-020S,2026-06-13T03:39:37.401408,15.27597763,.0001035,43.0033,320.6375,274.2278,85.8456,0,U,67633,999,2071,.79227186E-3,.21615E-3,0
STARLINK-36617,2026-020T,2026-06-13T17:04:41.738880,15.27594194,.0000403,43.0034,317.9562,114.9310,245.1583,0,U,67634,999,2079,.10858E-2,.2975E-3,0
STARLINK-36627,2026-020U,2026-06-13T17:35:56.008896,15.27585654,.0000103,43.0061,317.2545,325.6402,34.4443,0,U,67635,999,2080,.72894E-3,.19854E-3,0
STARLINK-36624,2026-020V,2026-06-13T17:10:01.419744,15.27589344,.0003568,42.9996,317.1034,113.7252,246.3975,0,U,67636,999,2080,.70234E-3,.19122E-3,0
STARLINK-36610,2026-020W,2026-06-13T03:34:04.034784,15.27650064,.00023499,43.0046,320.6037,269.9086,90.1496,0,U,67637,999,2071,.93312794E-3,.2556E-3,0
STARLINK-36599,2026-020X,2026-06-13T16:59:08.235744,15.27593180,.0002577,43.0020,317.9160,269.4901,90.5655,0,U,67638,999,2079,.64119E-3,.17431E-3,0
STARLINK-36595,2026-020Y,2026-06-13T03:45:10.198656,15.27601280,.00016484,43.0048,320.6557,268.7945,91.2718,0,U,67639,999,2071,.68292069E-3,.1859E-3,0
STARLINK-36570,2026-020Z,2026-06-13T17:26:40.773120,15.27591234,.0000506,42.9969,317.2011,180.3323,179.7529,0,U,67640,999,2080,.87689E-3,.23955E-3,0
STARLINK-36514,2026-020AA,2026-06-13T16:55:26.205024,15.27574208,.0001322,43.0006,317.8928,254.8780,105.1925,0,U,67641,999,2079,.68927E-3,.1875E-3,0
STARLINK-36556,2026-020AB,2026-06-13T16:49:53.252256,15.27586996,.0000848,43.0045,317.8733,121.3287,238.7648,0,U,67642,999,2079,.69572E-3,.18936E-3,0
STARLINK-36533,2026-020AC,2026-06-13T17:32:14.182944,15.27588851,.0000747,43.0109,317.2353,42.3111,317.7798,0,U,67643,999,2080,.94154E-3,.25744E-3,0
STARLINK-36623,2026-020AD,2026-06-13T17:17:25.681632,15.27600471,.0000179,43.0036,317.1522,107.0432,253.0439,0,U,67644,999,2080,.11236E-2,.30806E-3,0
STARLINK-36619,2026-020AE,2026-06-13T17:15:34.935840,15.27578118,.0001127,43.0038,317.1407,281.0289,79.0435,0,U,67645,999,2080,.10222E-2,.27972E-3,0
STARLINK-36719,2026-022A,2026-06-13T15:32:30.086880,15.33442321,.0001411,97.2832,197.5493,101.7673,258.3728,0,U,67648,999,2027,.54964E-3,.1771E-3,0
STARLINK-36342,2026-022B,2026-06-13T15:30:41.439744,15.33475845,.0000923,97.2838,198.6203,124.5257,235.6073,0,U,67649,999,2034,.47364E-3,.15262E-3,0
STARLINK-36703,2026-022C,2026-06-13T19:27:25.304256,15.33439556,.0001305,97.2833,197.7885,109.5032,250.6352,0,U,67650,999,2030,.39271E-3,.12622E-3,0
STARLINK-36696,2026-022D,2026-06-13T19:50:54.967776,15.33522768,.0000755,97.2839,197.7676,97.9651,262.1678,0,U,67651,999,2030,.18696E-2,.60919E-3,0
STARLINK-36699,2026-022E,2026-06-13T15:55:59.626848,15.33430596,.0001166,97.2836,197.6845,108.3567,251.7802,0,U,67652,999,2028,.36594E-3,.11752E-3,0
STARLINK-36694,2026-022F,2026-06-13T20:02:38.960160,15.33464014,.000114,97.2857,197.7555,101.4487,258.6884,0,U,67653,999,2030,.10088E-2,.32652E-3,0
STARLINK-36620,2026-022G,2026-06-13T19:39:09.371808,15.33470495,.00016,97.2839,197.7776,88.1857,271.9569,0,U,67654,999,2030,.7775E-3,.2513E-3,0
STARLINK-36720,2026-022H,2026-06-13T16:07:44.362272,15.33440945,.0001113,97.2844,197.6688,120.2162,239.9191,0,U,67655,999,2028,.40091E-3,.12888E-3,0
STARLINK-36688,2026-022J,2026-06-13T15:44:14.037792,15.33459249,.00011,97.2836,197.6944,105.5548,254.5816,0,U,67656,999,2028,.43186E-3,.13899E-3,0
STARLINK-36706,2026-022K,2026-06-13T19:54:49.574016,15.33433982,.0001343,97.2833,197.7643,95.4308,264.7088,0,U,67657,999,2030,.54255E-3,.17475E-3,0
STARLINK-36701,2026-022L,2026-06-13T15:01:09.975360,15.33420079,.0001281,97.2835,197.5828,97.6545,262.4843,0,U,67658,999,2027,.60293E-3,.19425E-3,0
STARLINK-36642,2026-022M,2026-06-13T19:31:20.163648,15.33432557,.0001094,97.2841,197.7863,95.5524,264.5843,0,U,67659,999,2030,.53017E-3,.17073E-3,0
